STARLINK-36662          
1 67832U 26033M   26069.57033561  .00880190  00000+0  33084-2 0  9998
2 67832  42.9964 265.1061 0003901 257.3460 102.6976 15.84815028  4774
STARLINK-36659          
1 67833U 26033N   26069.56993381  .00807646  00000+0  34331-2 0  9994
2 67833  42.9975 266.0122 0004103 248.7864 111.2570 15.82387104  4764
STARLINK-36655          
1 67834U 26033P   26069.56918654  .00617728  00000+0  26951-2 0  9994
2 67834  42.9979 266.0061 0002278 262.1726  97.8887 15.82308291  4769
STARLINK-36657          
1 67835U 26033Q   26069.56843689  .00586523  00000+0  25696-2 0  9993
2 67835  42.9980 266.0004 0002318 269.9878  90.0728 15.82298786  4763
STARLINK-36650          
1 67836U 26033R   26069.69422177 -.00005627  00000+0 -26106-4 0  9995
2 67836  42.9978 265.2221 0004290 280.1461  79.8927 15.80418741  4788
STARLINK-36649          
1 67837U 26033S   26069.56693844  .00807012  00000+0  34300-2 0  9992
2 67837  42.9976 265.9873 0002652 258.1962 101.8613 15.82389294  4766
STARLINK-36654          
1 67838U 26033T   26069.56618641  .00793086  00000+0  33766-2 0  9995
2 67838  42.9977 265.9812 0003655 256.8861 103.1603 15.82389011  4769
STARLINK-36652          
1 67839U 26033U   26069.83334490 -.01926815  00000+0 -11702-1 0  9999
2 67839  42.9988 264.3422 0001366 277.5187 167.9041 15.79706068  4844
STARLINK-36651          
1 67840U 26033V   26069.69095887  .00011432  00000+0  56761-4 0  9993
2 67840  42.9978 265.1949 0001529 199.8865 160.1947 15.82010859  4781
STARLINK-36656          
1 67841U 26033W   26069.87960641  .00194791  00000+0  90488-3 0  9996
2 67841  42.9978 264.0293 0001923 272.0796  87.9856 15.82064078  4818
STARLINK-36653          
1 67842U 26033X   26069.68945605  .00149557  00000+0  69861-3 0  9990
2 67842  42.9975 265.1832 0003161 125.3407 234.7761 15.82072550  4789
STARLINK-36589          
1 67843U 26033Y   26069.68870924  .00330763  00000+0  15150-2 0  9994
2 67843  42.9979 265.1768 0001812 257.0138 103.0531 15.82003250  4781
STARLINK-36598          
1 67844U 26033Z   26068.99349844  .00395096  00000+0  17830-2 0  9997
2 67844  42.9981 269.4275 0002048 271.9135  88.1502 15.82154324  4677
STARLINK-36606          
1 67845U 26033AA  26069.87660566  .00416418  00000+0  18749-2 0  9995
2 67845  42.9978 264.0034 0003471 287.4526  72.5967 15.82147591  4811
STARLINK-36658          
1 67846U 26033AB  26069.83334490 -.01923264  00000+0 -11729-1 0  9991
2 67846  42.9990 264.2671 0001473 281.5999 193.5499 15.79609851  4849
STARLINK-36618          
1 67847U 26033AC  26069.77888870  .00628669  16348-3  18765-2 0  9993
2 67847  42.9817 262.2733 0003026 265.2490  94.8040 15.91568359  4820
