[{"OBJECT_NAME":"STARLINK-36662","OBJECT_ID":"2026-033M","EPOCH":"2026-03-10T13:41:16.996704","MEAN_MOTION":15.84815028,"ECCENTRICITY":0.0003901,"INCLINATION":42.9964,"RA_OF_ASC_NODE":265.1061,"ARG_OF_PERICENTER":257.346,"MEAN_ANOMALY":102.6976,"EPHEMERIS_TYPE":0,"CLASSIFICATION_TYPE":"U","NORAD_CAT_ID":67832,"ELEMENT_SET_NO":999,"REV_AT_EPOCH":477,"BSTAR":0.0033084,"MEAN_MOTION_DOT":0.0088019,"MEAN_MOTION_DDOT":0},{"OBJECT_NAME":"STARLINK-36659","OBJECT_ID":"2026-033N","EPOCH":"2026-03-10T13:40:42.281184","MEAN_MOTION":15.82387104,"ECCENTRICITY":0.0004103,"INCLINATION":42.9975,"RA_OF_ASC_NODE":266.0122,"ARG_OF_PERICENTER":248.7864,"MEAN_ANOMALY":111.257,"EPHEMERIS_TYPE":0,"CLASSIFICATION_TYPE":"U","NORAD_CAT_ID":67833,"ELEMENT_SET_NO":999,"REV_AT_EPOCH":476,"BSTAR":0.0034331,"MEAN_MOTION_DOT":0.00807646,"MEAN_MOTION_DDOT":0},{"OBJECT_NAME":"STARLINK-36655","OBJECT_ID":"2026-033P","EPOCH":"2026-03-10T13:39:37.717056","MEAN_MOTION":15.82308291,"ECCENTRICITY":0.0002278,"INCLINATION":42.9979,"RA_OF_ASC_NODE":266.0061,"ARG_OF_PERICENTER":262.1726,"MEAN_ANOMALY":97.8887,"EPHEMERIS_TYPE":0,"CLASSIFICATION_TYPE":"U","NORAD_CAT_ID":67834,"ELEMENT_SET_NO":999,"REV_AT_EPOCH":476,"BSTAR":0.0026951,"MEAN_MOTION_DOT":0.00617728,"MEAN_MOTION_DDOT":0},{"OBJECT_NAME":"STARLINK-36657","OBJECT_ID":"2026-033Q","EPOCH":"2026-03-10T13:38:32.947296","MEAN_MOTION":15.82298786,"ECCENTRICITY":0.0002318,"INCLINATION":42.998,"RA_OF_ASC_NODE":266.0004,"ARG_OF_PERICENTER":269.9878,"MEAN_ANOMALY":90.0728,"EPHEMERIS_TYPE":0,"CLASSIFICATION_TYPE":"U","NORAD_CAT_ID":67835,"ELEMENT_SET_NO":999,"REV_AT_EPOCH":476,"BSTAR":0.0025696,"MEAN_MOTION_DOT":0.00586523,"MEAN_MOTION_DDOT":0},{"OBJECT_NAME":"STARLINK-36650","OBJECT_ID":"2026-033R","EPOCH":"2026-03-10T16:39:40.760928","MEAN_MOTION":15.80418741,"ECCENTRICITY":0.000429,"INCLINATION":42.9978,"RA_OF_ASC_NODE":265.2221,"ARG_OF_PERICENTER":280.1461,"MEAN_ANOMALY":79.8927,"EPHEMERIS_TYPE":0,"CLASSIFICATION_TYPE":"U","NORAD_CAT_ID":67836,"ELEMENT_SET_NO":999,"REV_AT_EPOCH":478,"BSTAR":-2.6106e-5,"MEAN_MOTION_DOT":-5.627e-5,"MEAN_MOTION_DDOT":0},{"OBJECT_NAME":"STARLINK-36649","OBJECT_ID":"2026-033S","EPOCH":"2026-03-10T13:36:23.481216","MEAN_MOTION":15.82389294,"ECCENTRICITY":0.0002652,"INCLINATION":42.9976,"RA_OF_ASC_NODE":265.9873,"ARG_OF_PERICENTER":258.1962,"MEAN_ANOMALY":101.8613,"EPHEMERIS_TYPE":0,"CLASSIFICATION_TYPE":"U","NORAD_CAT_ID":67837,"ELEMENT_SET_NO":999,"REV_AT_EPOCH":476,"BSTAR":0.00343,"MEAN_MOTION_DOT":0.00807012,"MEAN_MOTION_DDOT":0},{"OBJECT_NAME":"STARLINK-36654","OBJECT_ID":"2026-033T","EPOCH":"2026-03-10T13:35:18.505824","MEAN_MOTION":15.82389011,"ECCENTRICITY":0.0003655,"INCLINATION":42.9977,"RA_OF_ASC_NODE":265.9812,"ARG_OF_PERICENTER":256.8861,"MEAN_ANOMALY":103.1603,"EPHEMERIS_TYPE":0,"CLASSIFICATION_TYPE":"U","NORAD_CAT_ID":67838,"ELEMENT_SET_NO":999,"REV_AT_EPOCH":476,"BSTAR":0.0033766,"MEAN_MOTION_DOT":0.00793086,"MEAN_MOTION_DDOT":0},{"OBJECT_NAME":"STARLINK-36652","OBJECT_ID":"2026-033U","EPOCH":"2026-03-10T20:00:00.999360","MEAN_MOTION":15.79706068,"ECCENTRICITY":0.0001366,"INCLINATION":42.9988,"RA_OF_ASC_NODE":264.3422,"ARG_OF_PERICENTER":277.5187,"MEAN_ANOMALY":167.9041,"EPHEMERIS_TYPE":0,"CLASSIFICATION_TYPE":"U","NORAD_CAT_ID":67839,"ELEMENT_SET_NO":999,"REV_AT_EPOCH":484,"BSTAR":-0.011702,"MEAN_MOTION_DOT":-0.01926815,"MEAN_MOTION_DDOT":0},{"OBJECT_NAME":"STARLINK-36651","OBJECT_ID":"2026-033V","EPOCH":"2026-03-10T16:34:58.846368","MEAN_MOTION":15.82010859,"ECCENTRICITY":0.0001529,"INCLINATION":42.9978,"RA_OF_ASC_NODE":265.1949,"ARG_OF_PERICENTER":199.8865,"MEAN_ANOMALY":160.1947,"EPHEMERIS_TYPE":0,"CLASSIFICATION_TYPE":"U","NORAD_CAT_ID":67840,"ELEMENT_SET_NO":999,"REV_AT_EPOCH":478,"BSTAR":5.6761e-5,"MEAN_MOTION_DOT":0.00011432,"MEAN_MOTION_DDOT":0},{"OBJECT_NAME":"STARLINK-36656","OBJECT_ID":"2026-033W","EPOCH":"2026-03-10T21:06:37.993824","MEAN_MOTION":15.82064078,"ECCENTRICITY":0.0001923,"INCLINATION":42.9978,"RA_OF_ASC_NODE":264.0293,"ARG_OF_PERICENTER":272.0796,"MEAN_ANOMALY":87.9856,"EPHEMERIS_TYPE":0,"CLASSIFICATION_TYPE":"U","NORAD_CAT_ID":67841,"ELEMENT_SET_NO":999,"REV_AT_EPOCH":481,"BSTAR":0.00090488,"MEAN_MOTION_DOT":0.00194791,"MEAN_MOTION_DDOT":0},{"OBJECT_NAME":"STARLINK-36653","OBJECT_ID":"2026-033X","EPOCH":"2026-03-10T16:32:49.002720","MEAN_MOTION":15.8207255,"ECCENTRICITY":0.0003161,"INCLINATION":42.9975,"RA_OF_ASC_NODE":265.1832,"ARG_OF_PERICENTER":125.3407,"MEAN_ANOMALY":234.7761,"EPHEMERIS_TYPE":0,"CLASSIFICATION_TYPE":"U","NORAD_CAT_ID":67842,"ELEMENT_SET_NO":999,"REV_AT_EPOCH":478,"BSTAR":0.00069861,"MEAN_MOTION_DOT":0.00149557,"MEAN_MOTION_DDOT":0},{"OBJECT_NAME":"STARLINK-36589","OBJECT_ID":"2026-033Y","EPOCH":"2026-03-10T16:31:44.478336","MEAN_MOTION":15.8200325,"ECCENTRICITY":0.0001812,"INCLINATION":42.9979,"RA_OF_ASC_NODE":265.1768,"ARG_OF_PERICENTER":257.0138,"MEAN_ANOMALY":103.0531,"EPHEMERIS_TYPE":0,"CLASSIFICATION_TYPE":"U","NORAD_CAT_ID":67843,"ELEMENT_SET_NO":999,"REV_AT_EPOCH":478,"BSTAR":0.001515,"MEAN_MOTION_DOT":0.00330763,"MEAN_MOTION_DDOT":0},{"OBJECT_NAME":"STARLINK-36598","OBJECT_ID":"2026-033Z","EPOCH":"2026-03-09T23:50:38.265216","MEAN_MOTION":15.82154324,"ECCENTRICITY":0.00020482,"INCLINATION":42.9981,"RA_OF_ASC_NODE":269.4275,"ARG_OF_PERICENTER":271.9135,"MEAN_ANOMALY":88.1502,"EPHEMERIS_TYPE":0,"CLASSIFICATION_TYPE":"U","NORAD_CAT_ID":67844,"ELEMENT_SET_NO":999,"REV_AT_EPOCH":467,"BSTAR":0.0017829959,"MEAN_MOTION_DOT":0.00395096,"MEAN_MOTION_DDOT":0},{"OBJECT_NAME":"STARLINK-36606","OBJECT_ID":"2026-033AA","EPOCH":"2026-03-10T21:02:18.729024","MEAN_MOTION":15.82147591,"ECCENTRICITY":0.0003471,"INCLINATION":42.9978,"RA_OF_ASC_NODE":264.0034,"ARG_OF_PERICENTER":287.4526,"MEAN_ANOMALY":72.5967,"EPHEMERIS_TYPE":0,"CLASSIFICATION_TYPE":"U","NORAD_CAT_ID":67845,"ELEMENT_SET_NO":999,"REV_AT_EPOCH":481,"BSTAR":0.0018749,"MEAN_MOTION_DOT":0.00416418,"MEAN_MOTION_DDOT":0},{"OBJECT_NAME":"STARLINK-36658","OBJECT_ID":"2026-033AB","EPOCH":"2026-03-10T20:00:00.999360","MEAN_MOTION":15.79609851,"ECCENTRICITY":0.0001473,"INCLINATION":42.999,"RA_OF_ASC_NODE":264.2671,"ARG_OF_PERICENTER":281.5999,"MEAN_ANOMALY":193.5499,"EPHEMERIS_TYPE":0,"CLASSIFICATION_TYPE":"U","NORAD_CAT_ID":67846,"ELEMENT_SET_NO":999,"REV_AT_EPOCH":484,"BSTAR":-0.011729,"MEAN_MOTION_DOT":-0.01923264,"MEAN_MOTION_DDOT":0},{"OBJECT_NAME":"STARLINK-36618","OBJECT_ID":"2026-033AC","EPOCH":"2026-03-10T18:41:35.983680","MEAN_MOTION":15.91568359,"ECCENTRICITY":0.0003026,"INCLINATION":42.9817,"RA_OF_ASC_NODE":262.2733,"ARG_OF_PERICENTER":265.249,"MEAN_ANOMALY":94.804,"EPHEMERIS_TYPE":0,"CLASSIFICATION_TYPE":"U","NORAD_CAT_ID":67847,"ELEMENT_SET_NO":999,"REV_AT_EPOCH":482,"BSTAR":0.0018765,"MEAN_MOTION_DOT":0.00628669,"MEAN_MOTION_DDOT":0.00016348}]
